{"type": "FeatureCollection", "features": [ {"type": "Feature", "properties": {"norad_id": 40802, "name": "COSMOS 2251 DEB", "group": "cosmos-2251-debris", "lat": 34.55655308292556, "lon": 139.1151336881017, "alt_km": 677.5280720618448, "timestamp": "2025-12-25T14:48:25.170307+00:00", "meta": {"OBJECT_NAME": "COSMOS 2251 DEB", "OBJECT_ID": "1993-036BWF", "EPOCH": "2025-12-23T15:31:23.351520", "MEAN_MOTION": 14.77722867, "ECCENTRICITY": 0.00628376, "INCLINATION": 74.0411, "RA_OF_ASC_NODE": 131.6125, "ARG_OF_PERICENTER": 228.2814, "MEAN_ANOMALY": 131.2977, "EPHEMERIS_TYPE": 0, "CLASSIFICATION_TYPE": "U", "NORAD_CAT_ID": 40802, "ELEMENT_SET_NO": 999, "REV_AT_EPOCH": 64570, "BSTAR": 0.00086100359, "MEAN_MOTION_DOT": 6.349e-05, "MEAN_MOTION_DDOT": 0}, "tle": {"line1": "1 40802U 93036BWF 25357.64679805  .00006349  00000+0  86100-3 0  9991", "line2": "2 40802  74.0411 131.6125 0062837 228.2814 131.2977 14.77722867645708"}}, "geometry": {"type": "Point", "coordinates": [139.1151336881017, 34.55655308292556]}}, {"type": "Feature", "properties": {"norad_id": 40803, "name": "COSMOS 2251 DEB", "group": "cosmos-2251-debris", "lat": 55.49518937669717, "lon": -177.0337087078929, "alt_km": 726.5052060121016, "timestamp": "2025-12-25T14:48:25.170316+00:00", "meta": {"OBJECT_NAME": "COSMOS 2251 DEB", "OBJECT_ID": "1993-036BWG", "EPOCH": "2025-12-24T20:03:27.634464", "MEAN_MOTION": 14.51846049, "ECCENTRICITY": 0.00342953, "INCLINATION": 74.0134, "RA_OF_ASC_NODE": 29.0874, "ARG_OF_PERICENTER": 243.7253, "MEAN_ANOMALY": 116.0383, "EPHEMERIS_TYPE": 0, "CLASSIFICATION_TYPE": "U", "NORAD_CAT_ID": 40803, "ELEMENT_SET_NO": 999, "REV_AT_EPOCH": 58928, "BSTAR": 0.00027268389, "MEAN_MOTION_DOT": 1.077e-05, "MEAN_MOTION_DDOT": 0}, "tle": {"line1": "1 40803U 93036BWG 25358.83573651  .00001077  00000+0  27268-3 0  9999", "line2": "2 40803  74.0134  29.0874 0034295 243.7253 116.0383 14.51846049589281"}}, "geometry": {"type": "Point", "coordinates": [-177.0337087078929, 55.49518937669717]}}, {"type": "Feature", "properties": {"norad_id": 40808, "name": "COSMOS 2251 DEB", "group": "cosmos-2251-debris", "lat": 43.32987151917193, "lon": 136.2728437846862, "alt_km": 666.5081446093909, "timestamp": "2025-12-25T14:48:25.170325+00:00", "meta": {"OBJECT_NAME": "COSMOS 2251 DEB", "OBJECT_ID": "1993-036BWM", "EPOCH": "2025-12-21T15:48:05.753088", "MEAN_MOTION": 14.67620191, "ECCENTRICITY": 0.00084034, "INCLINATION": 74.0423, "RA_OF_ASC_NODE": 128.2531, "ARG_OF_PERICENTER": 163.7615, "MEAN_ANOMALY": 215.4081, "EPHEMERIS_TYPE": 0, "CLASSIFICATION_TYPE": "U", "NORAD_CAT_ID": 40808, "ELEMENT_SET_NO": 999, "REV_AT_EPOCH": 63750, "BSTAR": 0.0013228625, "MEAN_MOTION_DOT": 7.499e-05, "MEAN_MOTION_DDOT": 0}, "tle": {"line1": "1 40808U 93036BWM 25355.65839992  .00007499  00000+0  13229-2 0  9999", "line2": "2 40808  74.0423 128.2531 0008403 163.7615 215.4081 14.67620191637507"}}, "geometry": {"type": "Point", "coordinates": [136.2728437846862, 43.32987151917193]}}, {"type": "Feature", "properties": {"norad_id": 40810, "name": "COSMOS 2251 DEB", "group": "cosmos-2251-debris", "lat": -73.409011173729, "lon": -23.68299834985541, "alt_km": 700.4641597378186, "timestamp": "2025-12-25T14:48:25.170334+00:00", "meta": {"OBJECT_NAME": "COSMOS 2251 DEB", "OBJECT_ID": "1993-036BWP", "EPOCH": "2025-12-23T03:56:49.945344", "MEAN_MOTION": 14.58782513, "ECCENTRICITY": 0.00180471, "INCLINATION": 74.0361, "RA_OF_ASC_NODE": 54.8832, "ARG_OF_PERICENTER": 205.863, "MEAN_ANOMALY": 154.1635, "EPHEMERIS_TYPE": 0, "CLASSIFICATION_TYPE": "U", "NORAD_CAT_ID": 40810, "ELEMENT_SET_NO": 999, "REV_AT_EPOCH": 61835, "BSTAR": 0.0007215593, "MEAN_MOTION_DOT": 3.351e-05, "MEAN_MOTION_DDOT": 0}, "tle": {"line1": "1 40810U 93036BWP 25357.16446696  .00003351  00000+0  72156-3 0  9993", "line2": "2 40810  74.0361  54.8832 0018047 205.8630 154.1635 14.58782513618352"}}, "geometry": {"type": "Point", "coordinates": [-23.68299834985541, -73.409011173729]}}, {"type": "Feature", "properties": {"norad_id": 46271, "name": "COSMOS 2251 DEB", "group": "cosmos-2251-debris", "lat": 4.774482745536735, "lon": -127.37494322352953, "alt_km": 694.7520234934218, "timestamp": "2025-12-25T14:48:25.170343+00:00", "meta": {"OBJECT_NAME": "COSMOS 2251 DEB", "OBJECT_ID": "1993-036BWT", "EPOCH": "2025-12-23T10:43:26.670144", "MEAN_MOTION": 14.51452008, "ECCENTRICITY": 0.00396452, "INCLINATION": 74.0466, "RA_OF_ASC_NODE": 58.0745, "ARG_OF_PERICENTER": 177.4947, "MEAN_ANOMALY": 182.6421, "EPHEMERIS_TYPE": 0, "CLASSIFICATION_TYPE": "U", "NORAD_CAT_ID": 46271, "ELEMENT_SET_NO": 999, "REV_AT_EPOCH": 84797, "BSTAR": 0.00025039909, "MEAN_MOTION_DOT": 9.82e-06, "MEAN_MOTION_DDOT": 0}, "tle": {"line1": "1 46271U 93036BWT 25357.44683646  .00000982  00000+0  25040-3 0  9996", "line2": "2 46271  74.0466  58.0745 0039645 177.4947 182.6421 14.51452008847973"}}, "geometry": {"type": "Point", "coordinates": [-127.37494322352953, 4.774482745536735]}}, {"type": "Feature", "properties": {"norad_id": 46430, "name": "COSMOS 2251 DEB", "group": "cosmos-2251-debris", "lat": -54.09626416247508, "lon": 175.41418058183007, "alt_km": 656.0758567872772, "timestamp": "2025-12-25T14:48:25.170351+00:00", "meta": {"OBJECT_NAME": "COSMOS 2251 DEB", "OBJECT_ID": "1993-036BWU", "EPOCH": "2025-12-22T16:14:06.887040", "MEAN_MOTION": 14.51442901, "ECCENTRICITY": 0.01029275, "INCLINATION": 73.9145, "RA_OF_ASC_NODE": 337.5005, "ARG_OF_PERICENTER": 256.0795, "MEAN_ANOMALY": 102.8901, "EPHEMERIS_TYPE": 0, "CLASSIFICATION_TYPE": "U", "NORAD_CAT_ID": 46430, "ELEMENT_SET_NO": 999, "REV_AT_EPOCH": 79827, "BSTAR": 0.0019695835, "MEAN_MOTION_DOT": 8.403e-05, "MEAN_MOTION_DDOT": 0}, "tle": {"line1": "1 46430U 93036BWU 25356.67646860  .00008403  00000+0  19696-2 0  9999", "line2": "2 46430  73.9145 337.5005 0102927 256.0795 102.8901 14.51442901798271"}}, "geometry": {"type": "Point", "coordinates": [175.41418058183007, -54.09626416247508]}}, {"type": "Feature", "properties": {"norad_id": 46432, "name": "COSMOS 2251 DEB", "group": "cosmos-2251-debris", "lat": 73.26725191068536, "lon": 165.20990817901085, "alt_km": 1284.5074438358379, "timestamp": "2025-12-25T14:48:25.170360+00:00", "meta": {"OBJECT_NAME": "COSMOS 2251 DEB", "OBJECT_ID": "1993-036BWW", "EPOCH": "2025-12-25T00:54:04.722624", "MEAN_MOTION": 13.36660179, "ECCENTRICITY": 0.04737205, "INCLINATION": 73.8746, "RA_OF_ASC_NODE": 91.9173, "ARG_OF_PERICENTER": 207.4888, "MEAN_ANOMALY": 335.6994, "EPHEMERIS_TYPE": 0, "CLASSIFICATION_TYPE": "U", "NORAD_CAT_ID": 46432, "ELEMENT_SET_NO": 999, "REV_AT_EPOCH": 67130, "BSTAR": 0.00092584102, "MEAN_MOTION_DOT": 8.9e-06, "MEAN_MOTION_DDOT": 0}, "tle": {"line1": "1 46432U 93036BWW 25359.03755466  .00000890  00000+0  92584-3 0  9997", "line2": "2 46432  73.8746  91.9173 0473720 207.4888 335.6994 13.36660179671304"}}, "geometry": {"type": "Point", "coordinates": [165.20990817901085, 73.26725191068536]}}, {"type": "Feature", "properties": {"norad_id": 47045, "name": "COSMOS 2251 DEB", "group": "cosmos-2251-debris", "lat": -9.267353591757981, "lon": -51.87853793825576, "alt_km": 760.0156632434155, "timestamp": "2025-12-25T14:48:25.170369+00:00", "meta": {"OBJECT_NAME": "COSMOS 2251 DEB", "OBJECT_ID": "1993-036BWZ", "EPOCH": "2025-12-22T15:55:55.342272", "MEAN_MOTION": 14.38905258, "ECCENTRICITY": 0.00303733, "INCLINATION": 74.058, "RA_OF_ASC_NODE": 130.8857, "ARG_OF_PERICENTER": 270.255, "MEAN_ANOMALY": 108.4261, "EPHEMERIS_TYPE": 0, "CLASSIFICATION_TYPE": "U", "NORAD_CAT_ID": 47045, "ELEMENT_SET_NO": 999, "REV_AT_EPOCH": 7948, "BSTAR": 8.0309913e-05, "MEAN_MOTION_DOT": 2.22e-06, "MEAN_MOTION_DDOT": 0}, "tle": {"line1": "1 47045U 93036BWZ 25356.66383498  .00000222  00000+0  80310-4 0  9990", "line2": "2 47045  74.0580 130.8857 0030373 270.2550 108.4261 14.38905258 79480"}}, "geometry": {"type": "Point", "coordinates": [-51.87853793825576, -9.267353591757981]}}, {"type": "Feature", "properties": {"norad_id": 47048, "name": "COSMOS 2251 DEB", "group": "cosmos-2251-debris", "lat": 16.832625222780653, "lon": -60.192075461060455, "alt_km": 736.0672705384604, "timestamp": "2025-12-25T14:48:25.170384+00:00", "meta": {"OBJECT_NAME": "COSMOS 2251 DEB", "OBJECT_ID": "1993-036BXC", "EPOCH": "2025-12-21T05:13:53.078880", "MEAN_MOTION": 14.5236804, "ECCENTRICITY": 0.013255, "INCLINATION": 73.9787, "RA_OF_ASC_NODE": 303.1415, "ARG_OF_PERICENTER": 128.8028, "MEAN_ANOMALY": 299.2168, "EPHEMERIS_TYPE": 0, "CLASSIFICATION_TYPE": "U", "NORAD_CAT_ID": 47048, "ELEMENT_SET_NO": 999, "REV_AT_EPOCH": 59813, "BSTAR": 0.00086716, "MEAN_MOTION_DOT": 3.933e-05, "MEAN_MOTION_DDOT": 0}, "tle": {"line1": "1 47048U 93036BXC 25355.21797545  .00003933  00000+0  86716-3 0  9992", "line2": "2 47048  73.9787 303.1415 0132550 128.8028 299.2168 14.52368040598134"}}, "geometry": {"type": "Point", "coordinates": [-60.192075461060455, 16.832625222780653]}}, {"type": "Feature", "properties": {"norad_id": 47051, "name": "COSMOS 2251 DEB", "group": "cosmos-2251-debris", "lat": -0.29914713502230994, "lon": 162.46424648211558, "alt_km": 989.0125837625892, "timestamp": "2025-12-25T14:48:25.170394+00:00", "meta": {"OBJECT_NAME": "COSMOS 2251 DEB", "OBJECT_ID": "1993-036BXF", "EPOCH": "2025-12-13T06:55:53.868288", "MEAN_MOTION": 13.67117141, "ECCENTRICITY": 0.03401033, "INCLINATION": 74.1001, "RA_OF_ASC_NODE": 182.6908, "ARG_OF_PERICENTER": 296.1774, "MEAN_ANOMALY": 246.9893, "EPHEMERIS_TYPE": 0, "CLASSIFICATION_TYPE": "U", "NORAD_CAT_ID": 47051, "ELEMENT_SET_NO": 999, "REV_AT_EPOCH": 59945, "BSTAR": 0.0019326179, "MEAN_MOTION_DOT": 2.391e-05, "MEAN_MOTION_DDOT": 0}, "tle": {"line1": "1 47051U 93036BXF 25347.28881792  .00002391  00000+0  19326-2 0  9991", "line2": "2 47051  74.1001 182.6908 0340103 296.1774 246.9893 13.67117141599458"}}, "geometry": {"type": "Point", "coordinates": [162.46424648211558, -0.29914713502230994]}}]}